NORAD_CAT_ID,OBJECT_NAME,OBJECT_TYPE,EPOCH,MEAN_MOTION,ECCENTRICITY,INCLINATION,RA_OF_ASC_NODE,ARG_OF_PERICENTER,MEAN_ANOMALY,BSTAR,MEAN_MOTION_DOT,MEAN_MOTION_DDOT,TLE_LINE0,TLE_LINE1,TLE_LINE2,SEMIMAJOR_AXIS,PERIOD,APOGEE,PERIGEE,DECAYED
52695.0,STARLINK-4041,PAYLOAD,2022-07-24 04:00:00,15.09138219,0.0001675,53.2175,335.0213,36.9308,341.1194,-0.072152,-0.01071645,0.0,0 STARLINK-4041,1 52695U 22053AR  22205.16667824 -.01071645  00000-0 -72152-1 0  9994,2 52695  53.2175 335.0213 0001675  36.9308 341.1194 15.09138219 10729,6916.969,95.419,539.993,537.675,0.0
52695.0,STARLINK-4041,PAYLOAD,2022-07-24 14:00:01,15.08110043,0.000199,53.2174,333.1585,31.6232,90.6619,-0.059872,-0.00867738,0.0,0 STARLINK-4041,1 52695U 22053AR  22205.58334491 -.00867738  00000-0 -59872-1 0  9990,2 52695  53.2174 333.1585 0001990  31.6232  90.6619 15.08110043  1303,6920.111999999999,95.484,543.355,540.6,0.0
52695.0,STARLINK-4041,PAYLOAD,2022-07-24 22:00:00,15.07391918,0.0001672,53.2172,331.667,39.4318,93.2012,-0.018783,-0.00276748,0.0,0 STARLINK-4041,1 52695U 22053AR  22205.91667824 -.00276748  00000-0 -18783-1 0  9997,2 52695  53.2172 331.6670 0001672  39.4318  93.2012 15.07391918  1304,6922.31,95.529,545.3330000000002,543.018,0.0
52695.0,STARLINK-4041,PAYLOAD,2022-07-25 06:00:00,15.07198416,0.0001857,53.2174,330.1727,40.0206,102.3455,0.00033947,4.887e-05,0.0,0 STARLINK-4041,1 52695U 22053AR  22206.25001157  .00004887  00000-0  33947-3 0  9998,2 52695  53.2174 330.1727 0001857  40.0206 102.3455 15.07198416 10897,6922.903,95.542,546.053,543.482,0.0
52695.0,STARLINK-4041,PAYLOAD,2022-07-25 14:00:01,15.07242724,0.0001916999999999,53.2171,328.6577,41.7755,110.0624,-0.0011218,-0.00017336,0.0,0 STARLINK-4041,1 52695U 22053AR  22206.58334491 -.00017336  00000-0 -11218-2 0  9995,2 52695  53.2171 328.6577 0001917  41.7755 110.0624 15.07242724 10945,6922.767,95.539,545.9590000000002,543.305,0.0
52695.0,STARLINK-4041,PAYLOAD,2022-07-25 22:00:00,15.07245682,0.0001898,53.2173,327.165,37.823,123.6828,-0.0030724,-0.00046798,0.0,0 STARLINK-4041,1 52695U 22053AR  22206.91667824 -.00046798  00000-0 -30724-2 0  9998,2 52695  53.2173 327.1650 0001898  37.8230 123.6828 15.07245682  1307,6922.7580000000025,95.539,545.937,543.309,0.0
52695.0,STARLINK-4041,PAYLOAD,2022-07-26 14:00:01,15.07221616,0.0001854,53.2176,324.18,39.9184,140.8772,-0.0012181,-0.00018785,0.0,0 STARLINK-4041,1 52695U 22053AR  22207.58334491 -.00018785  00000-0 -12181-2 0  9995,2 52695  53.2176 324.1800 0001854  39.9184 140.8772 15.07221616  1307,6922.831999999999,95.54,545.98,543.413,0.0
52695.0,STARLINK-4041,PAYLOAD,2022-07-26 20:00:01,15.07221115,0.0001929,53.2174,323.0608,37.4031,60.6282,-0.0012414,-0.00019138,0.0,0 STARLINK-4041,1 52695U 22053AR  22207.83334491 -.00019138  00000-0 -12414-2 0  9995,2 52695  53.2174 323.0608 0001929  37.4031  60.6282 15.07221115 11137,6922.833000000001,95.54,546.034,543.363,0.0
52695.0,STARLINK-4041,PAYLOAD,2022-07-26 22:00:00,15.07234741,0.0001889999999999,53.2174,322.6871,39.4205,151.0185,-0.0038626999999999,-0.00058648,0.0,0 STARLINK-4041,1 52695U 22053AR  22207.91667824 -.00058648  00000-0 -38627-2 0  9996,2 52695  53.2174 322.6871 0001890  39.4205 151.0185 15.07234741  1300,6922.791,95.539,545.965,543.3480000000002,0.0
52695.0,STARLINK-4041,PAYLOAD,2022-07-27 14:00:01,15.07200216,0.0001906999999999,53.2175,319.7026,42.9806,166.7185,-0.00092683,-0.00014362,0.0,0 STARLINK-4041,1 52695U 22053AR  22208.58334491 -.00014362  00000-0 -92683-3 0  9999,2 52695  53.2175 319.7026 0001907  42.9806 166.7185 15.07200216  1308,6922.897,95.541,546.082,543.442,0.0
52695.0,STARLINK-4041,PAYLOAD,2022-07-27 22:00:00,15.07219509,0.0001888,53.2177,318.2096,41.851000000000006,177.4707,-0.0016825,-0.00025813,0.0,0 STARLINK-4041,1 52695U 22053AR  22208.91667824 -.00025813  00000-0 -16825-2 0  9991,2 52695  53.2177 318.2096 0001888  41.8510 177.4707 15.07219509 11292,6922.8380000000025,95.54,546.01,543.396,0.0
52695.0,STARLINK-4041,PAYLOAD,2022-07-28 14:00:01,15.07211385,0.0001923,53.219,315.2253,43.5604,195.0355,-0.00036651,-5.859e-05,0.0,0 STARLINK-4041,1 52695U 22053AR  22209.58334491 -.00005859  00000-0 -36651-3 0  9994,2 52695  53.2190 315.2253 0001923  43.5604 195.0355 15.07211385  1302,6922.863,95.541,546.059,543.3969999999998,0.0
52695.0,STARLINK-4041,PAYLOAD,2022-07-28 22:00:00,15.07231158,0.0001885999999999,53.2186,313.7322,42.6178,205.6092,-0.0020866,-0.00031927,0.0,0 STARLINK-4041,1 52695U 22053AR  22209.91667824 -.00031927  00000-0 -20866-2 0  9995,2 52695  53.2186 313.7322 0001886  42.6178 205.6092 15.07231158  1307,6922.802,95.539,545.9730000000002,543.362,0.0
52695.0,STARLINK-4041,PAYLOAD,2022-07-29 14:00:01,15.07213593,0.0001908,53.2185,310.7479,42.0677,225.4701,-0.0021000999999999,-0.00032116,0.0,0 STARLINK-4041,1 52695U 22053AR  22210.58334491 -.00032116  00000-0 -21001-2 0  9994,2 52695  53.2185 310.7479 0001908  42.0677 225.4701 15.07213593 11546,6922.856,95.541,546.0419999999998,543.4,0.0
52695.0,STARLINK-4041,PAYLOAD,2022-07-29 22:00:00,15.07215457,0.0001831,53.2183,309.2548,39.9302,237.23,-0.0023306,-0.00035594,0.0,0 STARLINK-4041,1 52695U 22053AR  22210.91667824 -.00035594  00000-0 -23306-2 0  9993,2 52695  53.2183 309.2548 0001831  39.9302 237.2300 15.07215457  1309,6922.85,95.54,545.9830000000002,543.448,0.0
52695.0,STARLINK-4041,PAYLOAD,2022-07-30 06:00:00,15.07192879,0.0001743,53.2184,307.7612,45.8439,240.9448,0.0018024999999999,0.00027251,0.0,0 STARLINK-4041,1 52695U 22053AR  22211.25001157  .00027251  00000-0  18025-2 0  9993,2 52695  53.2184 307.7612 0001743  45.8439 240.9448 15.07192879 11648,6922.92,95.542,545.991,543.578,0.0
52695.0,STARLINK-4041,PAYLOAD,2022-07-30 14:00:01,15.07199901,0.0001968,53.2184,306.2706,41.143,255.276,0.00029557,4.218e-05,0.0,0 STARLINK-4041,1 52695U 22053AR  22211.58334491  .00004218  00000-0  29557-3 0  9990,2 52695  53.2184 306.2706 0001968  41.1430 255.2760 15.07199901  1306,6922.898,95.541,546.125,543.401,0.0
52695.0,STARLINK-4041,PAYLOAD,2022-07-30 20:00:01,15.07215958,0.0001950999999999,53.2182,305.1509,39.2311,174.4039,-0.00067791,-0.00010591,0.0,0 STARLINK-4041,1 52695U 22053AR  22211.83334491 -.00010591  00000-0 -67791-3 0  9993,2 52695  53.2182 305.1509 0001951  39.2311 174.4039 15.07215958 11731,6922.849,95.54,546.065,543.363,0.0
52695.0,STARLINK-4041,PAYLOAD,2022-07-30 22:00:00,15.07226466,0.0001901,53.2183,304.7773,40.0736,265.9684,-0.0023274999999999,-0.00035558,0.0,0 STARLINK-4041,1 52695U 22053AR  22211.91667824 -.00035558  00000-0 -23275-2 0  9999,2 52695  53.2183 304.7773 0001901  40.0736 265.9684 15.07226466  1306,6922.816999999999,95.54,545.998,543.366,0.0
52695.0,STARLINK-4041,PAYLOAD,2022-07-31 14:00:01,15.07220751,0.0002009999999999,53.2185,301.7931,40.0046,285.3209,-0.0020371,-0.00031171,0.0,0 STARLINK-4041,1 52695U 22053AR  22212.58334491 -.00031171  00000-0 -20371-2 0  9995,2 52695  53.2185 301.7931 0002010  40.0046 285.3209 15.07220751  1307,6922.834,95.54,546.091,543.308,0.0
52695.0,STARLINK-4041,PAYLOAD,2022-07-31 22:00:00,15.07209798,0.0001883,53.2184,300.2996,38.0084,296.9553,-0.0022695999999999,-0.00034669,0.0,0 STARLINK-4041,1 52695U 22053AR  22212.91667824 -.00034669  00000-0 -22696-2 0  9998,2 52695  53.2184 300.2996 0001883  38.0084 296.9553 15.07209798  1305,6922.868,95.541,546.036,543.429,0.0
52695.0,STARLINK-4041,PAYLOAD,2022-08-01 04:00:00,15.07179904,0.0001776999999999,53.2183,299.1790000000001,41.5559,210.6308,0.0025727,0.00039068,0.0,0 STARLINK-4041,1 52695U 22053AR  22213.16667824  .00039068  00000-0  25727-2 0  9990,2 52695  53.2183 299.1790 0001777  41.5559 210.6308 15.07179904 11936,6922.959,95.543,546.055,543.594,0.0
52695.0,STARLINK-4041,PAYLOAD,2022-08-01 14:00:01,15.07193549,0.0002171999999999,53.2183,297.3271,36.8136,317.3934,-0.0025393,-0.00038717,0.0,0 STARLINK-4041,1 52695U 22053AR  22213.58334491 -.00038717  00000-0 -25393-2 0  9998,2 52695  53.2183 297.3271 0002172  36.8136 317.3934 15.07193549 11995,6922.918000000002,95.542,546.286,543.279,0.0
52695.0,STARLINK-4041,PAYLOAD,2022-08-01 22:00:00,15.07074116,0.0002015,53.2176,295.8407,43.1597,320.6293,0.081602,0.01347238,0.0,0 STARLINK-4041,1 52695U 22053AR  22213.91667824  .01347238  00000-0  81602-1 0  9998,2 52695  53.2176 295.8407 0002015  43.1597 320.6293 15.07074116 12049,6923.283,95.549,546.543,543.753,0.0
52695.0,STARLINK-4041,PAYLOAD,2022-08-02 06:00:02,15.07864042,0.0002128,53.2177,294.35,43.8488,329.9887,0.081744,0.01381693,0.0,0 STARLINK-4041,1 52695U 22053AR  22214.25002315  .01381693  00000-0  81744-1 0  9994,2 52695  53.2177 294.3500 0002128  43.8488 329.9887 15.07864042 12090,6920.865,95.499,544.203,541.257,0.0
52695.0,STARLINK-4041,PAYLOAD,2022-08-02 14:00:01,15.08942689,0.0002198999999999,53.2176,292.8567,38.1435,346.5449,-0.0100069999999999,-0.00156557,0.0,0 STARLINK-4041,1 52695U 22053AR  22214.58334491 -.00156557  00000-0 -10007-1 0  9997,2 52695  53.2176 292.8567 0002199  38.1435 346.5449 15.08942689 12142,6917.566999999999,95.431,540.953,537.91,0.0
52695.0,STARLINK-4041,PAYLOAD,2022-08-03 04:00:00,15.08824847,0.0002142,53.2182,290.2270000000001,53.7613,261.3283,0.0020953,0.00033203,0.0,0 STARLINK-4041,1 52695U 22053AR  22215.16667824  .00033203  00000-0  20953-2 0  9993,2 52695  53.2182 290.2270 0002142  53.7613 261.3283 15.08824847 12236,6917.927,95.439,541.274,538.31,0.0
52695.0,STARLINK-4041,PAYLOAD,2022-08-03 14:00:01,15.08838288,0.0002279999999999,53.218,288.3586,48.2767,11.311,-0.0014831,-0.00023814,0.0,0 STARLINK-4041,1 52695U 22053AR  22215.58334491 -.00023814  00000-0 -14831-2 0  9997,2 52695  53.2180 288.3586 0002280  48.2767  11.3110 15.08838288  1306,6917.886,95.438,541.328,538.173,0.0
52695.0,STARLINK-4041,PAYLOAD,2022-08-03 20:00:01,15.0883615,0.0002166999999999,53.2176,287.2354,47.5549,290.7225,-0.0021975,-0.00035089,0.0,0 STARLINK-4041,1 52695U 22053AR  22215.83334491 -.00035089  00000-0 -21975-2 0  9999,2 52695  53.2176 287.2354 0002167  47.5549 290.7225 15.08836150 12337,6917.892,95.438,541.256,538.258,0.0
